{
    "links": {
        "self": "http://www.neowsapp.com/rest/v1/neo/3367832?api_key=iIulBulltgU6a56xZRHN4H3l9WmuAYTsLGpBGhQ2"
    },
    "id": "3367832",
    "neo_reference_id": "3367832",
    "name": "(2007 CC19)",
    "designation": "2007 CC19",
    "nasa_jpl_url": "http://ssd.jpl.nasa.gov/sbdb.cgi?sstr=3367832",
    "absolute_magnitude_h": 27.0,
    "estimated_diameter": {
        "kilometers": {
            "estimated_diameter_min": 0.0105816886,
            "estimated_diameter_max": 0.023661375
        },
        "meters": {
            "estimated_diameter_min": 10.5816885933,
            "estimated_diameter_max": 23.6613750114
        },
        "miles": {
            "estimated_diameter_min": 0.0065751544,
            "estimated_diameter_max": 0.0147024923
        },
        "feet": {
            "estimated_diameter_min": 34.7168272045,
            "estimated_diameter_max": 77.6291855923
        }
    },
    "is_potentially_hazardous_asteroid": false,
    "close_approach_data": [
        {
            "close_approach_date": "1979-08-31",
            "close_approach_date_full": "1979-Aug-31 12:30",
            "epoch_date_close_approach": 304950600000,
            "relative_velocity": {
                "kilometers_per_second": "28.2835159851",
                "kilometers_per_hour": "101820.6575462596",
                "miles_per_hour": "63267.3969070078"
            },
            "miss_distance": {
                "astronomical": "0.3159273498",
                "lunar": "122.8957390722",
                "kilometers": "47262058.604824926",
                "miles": "29367281.4381029388"
            },
            "orbiting_body": "Earth"
        },
        {
            "close_approach_date": "2007-02-12",
            "close_approach_date_full": "2007-Feb-12 20:35",
            "epoch_date_close_approach": 1171312500000,
            "relative_velocity": {
                "kilometers_per_second": "18.8931264846",
                "kilometers_per_hour": "68015.2553445049",
                "miles_per_hour": "42262.0346333675"
            },
            "miss_distance": {
                "astronomical": "0.0046929891",
                "lunar": "1.8255727599",
                "kilometers": "702061.173293217",
                "miles": "436240.5843397146"
            },
            "orbiting_body": "Earth"
        },
        {
            "close_approach_date": "2007-02-12",
            "close_approach_date_full": "2007-Feb-12 23:48",
            "epoch_date_close_approach": 1171324080000,
            "relative_velocity": {
                "kilometers_per_second": "18.0628881856",
                "kilometers_per_hour": "65026.3974679962",
                "miles_per_hour": "40404.8745822669"
            },
            "miss_distance": {
                "astronomical": "0.0062311636",
                "lunar": "2.4239226404",
                "kilometers": "932168.802181532",
                "miles": "579222.8347558616"
            },
            "orbiting_body": "Moon"
        }
    ],
    "orbital_data": {
        "orbit_id": "6",
        "orbit_determination_date": "2017-04-06 09:07:04",
        "first_observation_date": "2007-02-10",
        "last_observation_date": "2007-02-11",
        "data_arc_in_days": 1,
        "observations_used": 10,
        "orbit_uncertainty": "9",
        "minimum_orbit_intersection": ".00294748",
        "jupiter_tisserand_invariant": "4.020",
        "epoch_osculation": "2454141.5",
        "eccentricity": ".626409531213504",
        "semi_major_axis": "1.656663612517083",
        "inclination": "2.18599923545565",
        "ascending_node_longitude": "317.8686297684767",
        "orbital_period": "778.8430107089715",
        "perihelion_distance": ".6189137356217871",
        "perihelion_argument": "273.8403320653131",
        "aphelion_distance": "2.694413489412379",
        "perihelion_time": "2454192.846206218419",
        "mean_anomaly": "336.2665466795362",
        "mean_motion": ".462224087588969",
        "equinox": "J2000",
        "orbit_class": {
            "orbit_class_type": "APO",
            "orbit_class_description": "Near-Earth asteroid orbits which cross the Earth’s orbit similar to that of 1862 Apollo",
            "orbit_class_range": "a (semi-major axis) > 1.0 AU; q (perihelion) < 1.017 AU"
        }
    },
    "is_sentry_object": false
}